CCSDS_OMM_VERS = 2.0
CREATION_DATE  = 
ORIGINATOR     = 

OBJECT_NAME    = IRIDE FM6
OBJECT_ID      = 2025-276AL
CENTER_NAME    = EARTH
REF_FRAME      = TEME
TIME_SYSTEM    = UTC
MEAN_ELEMENT_THEORY = SGP/SGP4

EPOCH          = 2025-12-25T21:57:03.587040
MEAN_MOTION    = 15.18221576
ECCENTRICITY   = .00020872
INCLINATION    = 97.4399
RA_OF_ASC_NODE = 71.4823
ARG_OF_PERICENTER = 147.4677
MEAN_ANOMALY   = 212.6686

EPHEMERIS_TYPE = 0
CLASSIFICATION_TYPE = U
NORAD_CAT_ID   = 66700
ELEMENT_SET_NO = 999
REV_AT_EPOCH   = 412
BSTAR          = .17391969E-2
MEAN_MOTION_DOT = .35666E-3
MEAN_MOTION_DDOT = 0

CCSDS_OMM_VERS = 2.0
CREATION_DATE  = 
ORIGINATOR     = 

OBJECT_NAME    = IRIDE FM7
OBJECT_ID      = 2025-276AM
CENTER_NAME    = EARTH
REF_FRAME      = TEME
TIME_SYSTEM    = UTC
MEAN_ELEMENT_THEORY = SGP/SGP4

EPOCH          = 2025-12-25T22:18:21.309984
MEAN_MOTION    = 15.17495492
ECCENTRICITY   = .00050999
INCLINATION    = 97.4415
RA_OF_ASC_NODE = 71.4624
ARG_OF_PERICENTER = 235.8175
MEAN_ANOMALY   = 124.2576

EPHEMERIS_TYPE = 0
CLASSIFICATION_TYPE = U
NORAD_CAT_ID   = 66701
ELEMENT_SET_NO = 999
REV_AT_EPOCH   = 412
BSTAR          = .16248232E-2
MEAN_MOTION_DOT = .32625E-3
MEAN_MOTION_DDOT = 0

CCSDS_OMM_VERS = 2.0
CREATION_DATE  = 
ORIGINATOR     = 

OBJECT_NAME    = IRIDE FM8
OBJECT_ID      = 2025-276AN
CENTER_NAME    = EARTH
REF_FRAME      = TEME
TIME_SYSTEM    = UTC
MEAN_ELEMENT_THEORY = SGP/SGP4

EPOCH          = 2025-12-25T22:18:07.830720
MEAN_MOTION    = 15.17437506
ECCENTRICITY   = .00028182
INCLINATION    = 97.4393
RA_OF_ASC_NODE = 71.4539
ARG_OF_PERICENTER = 249.0904
MEAN_ANOMALY   = 111.0028

EPHEMERIS_TYPE = 0
CLASSIFICATION_TYPE = U
NORAD_CAT_ID   = 66702
ELEMENT_SET_NO = 999
REV_AT_EPOCH   = 412
BSTAR          = .43506151E-3
MEAN_MOTION_DOT = .8642E-4
MEAN_MOTION_DDOT = 0

CCSDS_OMM_VERS = 2.0
CREATION_DATE  = 
ORIGINATOR     = 

OBJECT_NAME    = PELICAN-6
OBJECT_ID      = 2025-276AP
CENTER_NAME    = EARTH
REF_FRAME      = TEME
TIME_SYSTEM    = UTC
MEAN_ELEMENT_THEORY = SGP/SGP4

EPOCH          = 2025-12-25T22:00:01.999584
MEAN_MOTION    = 15.17368571
ECCENTRICITY   = .00010626
INCLINATION    = 97.4404
RA_OF_ASC_NODE = 71.4469
ARG_OF_PERICENTER = 209.0656
MEAN_ANOMALY   = 88.6485

EPHEMERIS_TYPE = 0
CLASSIFICATION_TYPE = U
NORAD_CAT_ID   = 66703
ELEMENT_SET_NO = 999
REV_AT_EPOCH   = 526
BSTAR          = -.12243112E-2
MEAN_MOTION_DOT = -.24411E-3
MEAN_MOTION_DDOT = 0

CCSDS_OMM_VERS = 2.0
CREATION_DATE  = 
ORIGINATOR     = 

OBJECT_NAME    = FLOCK 4H-1
OBJECT_ID      = 2025-276AQ
CENTER_NAME    = EARTH
REF_FRAME      = TEME
TIME_SYSTEM    = UTC
MEAN_ELEMENT_THEORY = SGP/SGP4

EPOCH          = 2025-12-25T20:24:31.350240
MEAN_MOTION    = 15.18419865
ECCENTRICITY   = .00034549
INCLINATION    = 97.4380
RA_OF_ASC_NODE = 71.3992
ARG_OF_PERICENTER = 203.5833
MEAN_ANOMALY   = 156.5243

EPHEMERIS_TYPE = 0
CLASSIFICATION_TYPE = U
NORAD_CAT_ID   = 66704
ELEMENT_SET_NO = 999
REV_AT_EPOCH   = 411
BSTAR          = .99609823E-2
MEAN_MOTION_DOT = .210769E-2
MEAN_MOTION_DDOT = 0

CCSDS_OMM_VERS = 2.0
CREATION_DATE  = 
ORIGINATOR     = 

OBJECT_NAME    = FLOCK 4H-2
OBJECT_ID      = 2025-276AR
CENTER_NAME    = EARTH
REF_FRAME      = TEME
TIME_SYSTEM    = UTC
MEAN_ELEMENT_THEORY = SGP/SGP4

EPOCH          = 2025-12-25T21:58:43.389408
MEAN_MOTION    = 15.18180236
ECCENTRICITY   = .00015379
INCLINATION    = 97.4371
RA_OF_ASC_NODE = 71.4636
ARG_OF_PERICENTER = 151.5350
MEAN_ANOMALY   = 208.5968

EPHEMERIS_TYPE = 0
CLASSIFICATION_TYPE = U
NORAD_CAT_ID   = 66705
ELEMENT_SET_NO = 999
REV_AT_EPOCH   = 412
BSTAR          = .37601474E-3
MEAN_MOTION_DOT = .762E-4
MEAN_MOTION_DDOT = 0

CCSDS_OMM_VERS = 2.0
CREATION_DATE  = 
ORIGINATOR     = 

OBJECT_NAME    = FLOCK 4H-3
OBJECT_ID      = 2025-276AS
CENTER_NAME    = EARTH
REF_FRAME      = TEME
TIME_SYSTEM    = UTC
MEAN_ELEMENT_THEORY = SGP/SGP4

EPOCH          = 2025-12-25T22:15:00.755712
MEAN_MOTION    = 15.17511393
ECCENTRICITY   = .00030332
INCLINATION    = 97.4438
RA_OF_ASC_NODE = 71.4744
ARG_OF_PERICENTER = 231.4892
MEAN_ANOMALY   = 128.6070

EPHEMERIS_TYPE = 0
CLASSIFICATION_TYPE = U
NORAD_CAT_ID   = 66706
ELEMENT_SET_NO = 999
REV_AT_EPOCH   = 412
BSTAR          = .26463673E-3
MEAN_MOTION_DOT = .524E-4
MEAN_MOTION_DDOT = 0

CCSDS_OMM_VERS = 2.0
CREATION_DATE  = 
ORIGINATOR     = 

OBJECT_NAME    = FLOCK 4H-4
OBJECT_ID      = 2025-276AT
CENTER_NAME    = EARTH
REF_FRAME      = TEME
TIME_SYSTEM    = UTC
MEAN_ELEMENT_THEORY = SGP/SGP4

EPOCH          = 2025-12-25T22:21:26.825472
MEAN_MOTION    = 15.17244415
ECCENTRICITY   = .00036308
INCLINATION    = 97.4423
RA_OF_ASC_NODE = 71.4622
ARG_OF_PERICENTER = 236.4827
MEAN_ANOMALY   = 123.6060

EPHEMERIS_TYPE = 0
CLASSIFICATION_TYPE = U
NORAD_CAT_ID   = 66707
ELEMENT_SET_NO = 999
REV_AT_EPOCH   = 412
BSTAR          = .32737338E-3
MEAN_MOTION_DOT = .6449E-4
MEAN_MOTION_DDOT = 0

CCSDS_OMM_VERS = 2.0
CREATION_DATE  = 
ORIGINATOR     = 

OBJECT_NAME    = FLOCK 4H-5
OBJECT_ID      = 2025-276AU
CENTER_NAME    = EARTH
REF_FRAME      = TEME
TIME_SYSTEM    = UTC
MEAN_ELEMENT_THEORY = SGP/SGP4

EPOCH          = 2025-12-25T21:56:55.717728
MEAN_MOTION    = 15.18203545
ECCENTRICITY   = .0001332
INCLINATION    = 97.4377
RA_OF_ASC_NODE = 71.4688
ARG_OF_PERICENTER = 125.2934
MEAN_ANOMALY   = 234.8425

EPHEMERIS_TYPE = 0
CLASSIFICATION_TYPE = U
NORAD_CAT_ID   = 66708
ELEMENT_SET_NO = 999
REV_AT_EPOCH   = 412
BSTAR          = .33621425E-3
MEAN_MOTION_DOT = .681E-4
MEAN_MOTION_DDOT = 0

CCSDS_OMM_VERS = 2.0
CREATION_DATE  = 
ORIGINATOR     = 

OBJECT_NAME    = FLOCK 4H-6
OBJECT_ID      = 2025-276AV
CENTER_NAME    = EARTH
REF_FRAME      = TEME
TIME_SYSTEM    = UTC
MEAN_ELEMENT_THEORY = SGP/SGP4

EPOCH          = 2025-12-25T22:02:55.404384
MEAN_MOTION    = 15.17947619
ECCENTRICITY   = .00029096
INCLINATION    = 97.4425
RA_OF_ASC_NODE = 71.4835
ARG_OF_PERICENTER = 193.7988
MEAN_ANOMALY   = 166.3167

EPHEMERIS_TYPE = 0
CLASSIFICATION_TYPE = U
NORAD_CAT_ID   = 66709
ELEMENT_SET_NO = 999
REV_AT_EPOCH   = 412
BSTAR          = .31753911E-3
MEAN_MOTION_DOT = .6381E-4
MEAN_MOTION_DDOT = 0

CCSDS_OMM_VERS = 2.0
CREATION_DATE  = 
ORIGINATOR     = 

OBJECT_NAME    = FLOCK 4H-7
OBJECT_ID      = 2025-276AW
CENTER_NAME    = EARTH
REF_FRAME      = TEME
TIME_SYSTEM    = UTC
MEAN_ELEMENT_THEORY = SGP/SGP4

EPOCH          = 2025-12-25T22:14:45.832704
MEAN_MOTION    = 15.17521520
ECCENTRICITY   = .00009995
INCLINATION    = 97.4384
RA_OF_ASC_NODE = 71.4503
ARG_OF_PERICENTER = 267.2686
MEAN_ANOMALY   = 92.8433

EPHEMERIS_TYPE = 0
CLASSIFICATION_TYPE = U
NORAD_CAT_ID   = 66710
ELEMENT_SET_NO = 999
REV_AT_EPOCH   = 412
BSTAR          = .2769569E-3
MEAN_MOTION_DOT = .5488E-4
MEAN_MOTION_DDOT = 0

CCSDS_OMM_VERS = 2.0
CREATION_DATE  = 
ORIGINATOR     = 

OBJECT_NAME    = FLOCK 4H-8
OBJECT_ID      = 2025-276AX
CENTER_NAME    = EARTH
REF_FRAME      = TEME
TIME_SYSTEM    = UTC
MEAN_ELEMENT_THEORY = SGP/SGP4

EPOCH          = 2025-12-25T22:15:05.657184
MEAN_MOTION    = 15.17523560
ECCENTRICITY   = .0002345
INCLINATION    = 97.4425
RA_OF_ASC_NODE = 71.4723
ARG_OF_PERICENTER = 250.4349
MEAN_ANOMALY   = 109.6631

EPHEMERIS_TYPE = 0
CLASSIFICATION_TYPE = U
NORAD_CAT_ID   = 66711
ELEMENT_SET_NO = 999
REV_AT_EPOCH   = 412
BSTAR          = .34606497E-3
MEAN_MOTION_DOT = .6876E-4
MEAN_MOTION_DDOT = 0

