IRIDE FM6               
1 66700U 25276AL  25359.91462485  .00035666  00000+0  17392-2 0  9993
2 66700  97.4399  71.4823 0002087 147.4677 212.6686 15.18221576  4126
IRIDE FM7               
1 66701U 25276AM  25359.92941331  .00032625  00000+0  16248-2 0  9998
2 66701  97.4415  71.4624 0005099 235.8175 124.2576 15.17495492  4121
IRIDE FM8               
1 66702U 25276AN  25359.92925730  .00008642  00000+0  43506-3 0  9994
2 66702  97.4393  71.4539 0002818 249.0904 111.0028 15.17437506  4123
PELICAN-6               
1 66703U 25276AP  25359.91668981 -.00024411  00000+0 -12243-2 0  9993
2 66703  97.4404  71.4469 0001062 209.0656  88.6485 15.17368571  5266
FLOCK 4H-1              
1 66704U 25276AQ  25359.85036285  .00210769  00000+0  99610-2 0  9997
2 66704  97.4380  71.3992 0003454 203.5833 156.5243 15.18419865  4117
FLOCK 4H-2              
1 66705U 25276AR  25359.91577997  .00007620  00000+0  37601-3 0  9998
2 66705  97.4371  71.4636 0001537 151.5350 208.5968 15.18180236  4120
FLOCK 4H-3              
1 66706U 25276AS  25359.92709208  .00005240  00000+0  26464-3 0  9993
2 66706  97.4438  71.4744 0003033 231.4892 128.6070 15.17511393  4124
FLOCK 4H-4              
1 66707U 25276AT  25359.93156048  .00006449  00000+0  32737-3 0  9995
2 66707  97.4423  71.4622 0003630 236.4827 123.6060 15.17244415  4122
FLOCK 4H-5              
1 66708U 25276AU  25359.91453377  .00006810  00000+0  33621-3 0  9994
2 66708  97.4377  71.4688 0001332 125.2934 234.8425 15.18203545  4124
FLOCK 4H-6              
1 66709U 25276AV  25359.91869681  .00006381  00000+0  31754-3 0  9992
2 66709  97.4425  71.4835 0002909 193.7988 166.3167 15.17947619  4121
FLOCK 4H-7              
1 66710U 25276AW  25359.92691936  .00005488  00000+0  27696-3 0  9998
2 66710  97.4384  71.4503 0000999 267.2686  92.8433 15.17521520  4126
FLOCK 4H-8              
1 66711U 25276AX  25359.92714881  .00006876  00000+0  34606-3 0  9995
2 66711  97.4425  71.4723 0002345 250.4349 109.6631 15.17523560  4127
